{"type": "FeatureCollection", "features": [ {"type": "Feature", "properties": {"norad_id": 66355, "name": "STARLINK-35861", "group": "last-30-days", "lat": -38.98355770437407, "lon": 177.49150183297021, "alt_km": 386.0117670524014, "timestamp": "2025-12-03T15:48:01.918211+00:00", "meta": {"OBJECT_NAME": "STARLINK-35861", "OBJECT_ID": "2025-254H", "EPOCH": "2025-12-03T08:00:01.999872", "MEAN_MOTION": 15.63787701, "ECCENTRICITY": 0.00014001, "INCLINATION": 53.1598, "RA_OF_ASC_NODE": 321.7223, "ARG_OF_PERICENTER": 81.8318, "MEAN_ANOMALY": 120.1052, "EPHEMERIS_TYPE": 0, "CLASSIFICATION_TYPE": "U", "NORAD_CAT_ID": 66355, "ELEMENT_SET_NO": 999, "REV_AT_EPOCH": 541, "BSTAR": -0.023991094, "MEAN_MOTION_DOT": -0.02010641, "MEAN_MOTION_DDOT": 0}, "tle": {"line1": "1 66355U 25254H   25337.33335648 -.02010641  00000+0 -23991-1 0  9998", "line2": "2 66355  53.1598 321.7223 0001400  81.8318 120.1052 15.63787701  5418"}}, "geometry": {"type": "Point", "coordinates": [177.49150183297021, -38.98355770437407]}}, {"type": "Feature", "properties": {"norad_id": 66356, "name": "STARLINK-35851", "group": "last-30-days", "lat": -40.185597322536026, "lon": 179.42151188634014, "alt_km": 386.09704954178414, "timestamp": "2025-12-03T15:48:01.918221+00:00", "meta": {"OBJECT_NAME": "STARLINK-35851", "OBJECT_ID": "2025-254J", "EPOCH": "2025-12-03T08:00:01.999872", "MEAN_MOTION": 15.63786525, "ECCENTRICITY": 0.00014738, "INCLINATION": 53.1597, "RA_OF_ASC_NODE": 321.7178, "ARG_OF_PERICENTER": 85.5431, "MEAN_ANOMALY": 118.3118, "EPHEMERIS_TYPE": 0, "CLASSIFICATION_TYPE": "U", "NORAD_CAT_ID": 66356, "ELEMENT_SET_NO": 999, "REV_AT_EPOCH": 541, "BSTAR": -0.023977073, "MEAN_MOTION_DOT": -0.02009585, "MEAN_MOTION_DDOT": 0}, "tle": {"line1": "1 66356U 25254J   25337.33335648 -.02009585  00000+0 -23977-1 0  9998", "line2": "2 66356  53.1597 321.7178 0001473  85.5431 118.3118 15.63786525  5419"}}, "geometry": {"type": "Point", "coordinates": [179.42151188634014, -40.185597322536026]}}, {"type": "Feature", "properties": {"norad_id": 66357, "name": "STARLINK-35817", "group": "last-30-days", "lat": -41.353601025936065, "lon": -178.58058104341285, "alt_km": 386.1338965124123, "timestamp": "2025-12-03T15:48:01.918231+00:00", "meta": {"OBJECT_NAME": "STARLINK-35817", "OBJECT_ID": "2025-254K", "EPOCH": "2025-12-03T08:00:01.999872", "MEAN_MOTION": 15.63785186, "ECCENTRICITY": 0.00014548, "INCLINATION": 53.1596, "RA_OF_ASC_NODE": 321.7136, "ARG_OF_PERICENTER": 87.8936, "MEAN_ANOMALY": 117.8787, "EPHEMERIS_TYPE": 0, "CLASSIFICATION_TYPE": "U", "NORAD_CAT_ID": 66357, "ELEMENT_SET_NO": 999, "REV_AT_EPOCH": 541, "BSTAR": -0.023949097, "MEAN_MOTION_DOT": -0.0200742, "MEAN_MOTION_DDOT": 0}, "tle": {"line1": "1 66357U 25254K   25337.33335648 -.02007420  00000+0 -23949-1 0  9994", "line2": "2 66357  53.1596 321.7136 0001454  87.8936 117.8787 15.63785186  5415"}}, "geometry": {"type": "Point", "coordinates": [-178.58058104341285, -41.353601025936065]}}, {"type": "Feature", "properties": {"norad_id": 66358, "name": "STARLINK-35807", "group": "last-30-days", "lat": -42.48554275600906, "lon": -176.51164870544025, "alt_km": 386.1450529599815, "timestamp": "2025-12-03T15:48:01.918240+00:00", "meta": {"OBJECT_NAME": "STARLINK-35807", "OBJECT_ID": "2025-254L", "EPOCH": "2025-12-03T08:00:01.999872", "MEAN_MOTION": 15.6378704, "ECCENTRICITY": 0.00013524, "INCLINATION": 53.1598, "RA_OF_ASC_NODE": 321.7092, "ARG_OF_PERICENTER": 87.1324, "MEAN_ANOMALY": 120.5566, "EPHEMERIS_TYPE": 0, "CLASSIFICATION_TYPE": "U", "NORAD_CAT_ID": 66358, "ELEMENT_SET_NO": 999, "REV_AT_EPOCH": 541, "BSTAR": -0.023984287, "MEAN_MOTION_DOT": -0.02010058, "MEAN_MOTION_DDOT": 0}, "tle": {"line1": "1 66358U 25254L   25337.33335648 -.02010058  00000+0 -23984-1 0  9995", "line2": "2 66358  53.1598 321.7092 0001352  87.1324 120.5566 15.63787040  5417"}}, "geometry": {"type": "Point", "coordinates": [-176.51164870544025, -42.48554275600906]}}, {"type": "Feature", "properties": {"norad_id": 66359, "name": "STARLINK-35805", "group": "last-30-days", "lat": -43.578696727740045, "lon": -174.36635511536946, "alt_km": 386.2716690408515, "timestamp": "2025-12-03T15:48:01.918251+00:00", "meta": {"OBJECT_NAME": "STARLINK-35805", "OBJECT_ID": "2025-254M", "EPOCH": "2025-12-03T08:00:01.999872", "MEAN_MOTION": 15.63788893, "ECCENTRICITY": 0.00014624, "INCLINATION": 53.1597, "RA_OF_ASC_NODE": 321.7056, "ARG_OF_PERICENTER": 86.7732, "MEAN_ANOMALY": 122.831, "EPHEMERIS_TYPE": 0, "CLASSIFICATION_TYPE": "U", "NORAD_CAT_ID": 66359, "ELEMENT_SET_NO": 999, "REV_AT_EPOCH": 538, "BSTAR": -0.024005275, "MEAN_MOTION_DOT": -0.02011816, "MEAN_MOTION_DDOT": 0}, "tle": {"line1": "1 66359U 25254M   25337.33335648 -.02011816  00000+0 -24005-1 0  9994", "line2": "2 66359  53.1597 321.7056 0001462  86.7732 122.8310 15.63788893  5382"}}, "geometry": {"type": "Point", "coordinates": [-174.36635511536946, -43.578696727740045]}}, {"type": "Feature", "properties": {"norad_id": 66360, "name": "STARLINK-35823", "group": "last-30-days", "lat": -45.636875896239836, "lon": -169.84161415860302, "alt_km": 386.30527603044993, "timestamp": "2025-12-03T15:48:01.918261+00:00", "meta": {"OBJECT_NAME": "STARLINK-35823", "OBJECT_ID": "2025-254N", "EPOCH": "2025-12-03T08:00:01.999872", "MEAN_MOTION": 15.63791148, "ECCENTRICITY": 0.00013705, "INCLINATION": 53.1598, "RA_OF_ASC_NODE": 321.6967, "ARG_OF_PERICENTER": 89.1313, "MEAN_ANOMALY": 124.3061, "EPHEMERIS_TYPE": 0, "CLASSIFICATION_TYPE": "U", "NORAD_CAT_ID": 66360, "ELEMENT_SET_NO": 999, "REV_AT_EPOCH": 541, "BSTAR": -0.024045234, "MEAN_MOTION_DOT": -0.02014838, "MEAN_MOTION_DDOT": 0}, "tle": {"line1": "1 66360U 25254N   25337.33335648 -.02014838  00000+0 -24045-1 0  9997", "line2": "2 66360  53.1598 321.6967 0001370  89.1313 124.3061 15.63791148  5416"}}, "geometry": {"type": "Point", "coordinates": [-169.84161415860302, -45.636875896239836]}}, {"type": "Feature", "properties": {"norad_id": 66361, "name": "STARLINK-35813", "group": "last-30-days", "lat": -44.62983323360326, "lon": -172.14510009906007, "alt_km": 386.330291347831, "timestamp": "2025-12-03T15:48:01.918271+00:00", "meta": {"OBJECT_NAME": "STARLINK-35813", "OBJECT_ID": "2025-254P", "EPOCH": "2025-12-03T08:00:01.999872", "MEAN_MOTION": 15.63789685, "ECCENTRICITY": 0.00014804, "INCLINATION": 53.16, "RA_OF_ASC_NODE": 321.7016, "ARG_OF_PERICENTER": 87.3125, "MEAN_ANOMALY": 124.2064, "EPHEMERIS_TYPE": 0, "CLASSIFICATION_TYPE": "U", "NORAD_CAT_ID": 66361, "ELEMENT_SET_NO": 999, "REV_AT_EPOCH": 541, "BSTAR": -0.02399513, "MEAN_MOTION_DOT": -0.02011139, "MEAN_MOTION_DDOT": 0}, "tle": {"line1": "1 66361U 25254P   25337.33335648 -.02011139  00000+0 -23995-1 0  9992", "line2": "2 66361  53.1600 321.7016 0001480  87.3125 124.2064 15.63789685  5415"}}, "geometry": {"type": "Point", "coordinates": [-172.14510009906007, -44.62983323360326]}}, {"type": "Feature", "properties": {"norad_id": 66362, "name": "STARLINK-35822", "group": "last-30-days", "lat": -47.50146051211566, "lon": -164.989937147953, "alt_km": 386.4311435237414, "timestamp": "2025-12-03T15:48:01.918281+00:00", "meta": {"OBJECT_NAME": "STARLINK-35822", "OBJECT_ID": "2025-254Q", "EPOCH": "2025-12-03T08:00:01.999872", "MEAN_MOTION": 15.63789509, "ECCENTRICITY": 0.00014054, "INCLINATION": 53.1601, "RA_OF_ASC_NODE": 321.6896, "ARG_OF_PERICENTER": 86.4257, "MEAN_ANOMALY": 130.8449, "EPHEMERIS_TYPE": 0, "CLASSIFICATION_TYPE": "U", "NORAD_CAT_ID": 66362, "ELEMENT_SET_NO": 999, "REV_AT_EPOCH": 541, "BSTAR": -0.024012402, "MEAN_MOTION_DOT": -0.02012338, "MEAN_MOTION_DDOT": 0}, "tle": {"line1": "1 66362U 25254Q   25337.33335648 -.02012338  00000+0 -24012-1 0  9996", "line2": "2 66362  53.1601 321.6896 0001405  86.4257 130.8449 15.63789509  5410"}}, "geometry": {"type": "Point", "coordinates": [-164.989937147953, -47.50146051211566]}}, {"type": "Feature", "properties": {"norad_id": 66363, "name": "STARLINK-35806", "group": "last-30-days", "lat": -46.594287298090094, "lon": -167.459256797956, "alt_km": 386.3895463377057, "timestamp": "2025-12-03T15:48:01.918290+00:00", "meta": {"OBJECT_NAME": "STARLINK-35806", "OBJECT_ID": "2025-254R", "EPOCH": "2025-12-03T08:00:01.999872", "MEAN_MOTION": 15.63793619, "ECCENTRICITY": 0.0001403, "INCLINATION": 53.1601, "RA_OF_ASC_NODE": 321.6934, "ARG_OF_PERICENTER": 85.668, "MEAN_ANOMALY": 129.6823, "EPHEMERIS_TYPE": 0, "CLASSIFICATION_TYPE": "U", "NORAD_CAT_ID": 66363, "ELEMENT_SET_NO": 999, "REV_AT_EPOCH": 538, "BSTAR": -0.024061202, "MEAN_MOTION_DOT": -0.0201621, "MEAN_MOTION_DDOT": 0}, "tle": {"line1": "1 66363U 25254R   25337.33335648 -.02016210  00000+0 -24061-1 0  9994", "line2": "2 66363  53.1601 321.6934 0001403  85.6680 129.6823 15.63793619  5388"}}, "geometry": {"type": "Point", "coordinates": [-167.459256797956, -46.594287298090094]}}, {"type": "Feature", "properties": {"norad_id": 66364, "name": "STARLINK-35797", "group": "last-30-days", "lat": -48.35361669150518, "lon": -162.4365473952287, "alt_km": 386.437764792302, "timestamp": "2025-12-03T15:48:01.918299+00:00", "meta": {"OBJECT_NAME": "STARLINK-35797", "OBJECT_ID": "2025-254S", "EPOCH": "2025-12-03T08:00:01.999872", "MEAN_MOTION": 15.63787372, "ECCENTRICITY": 0.00013654, "INCLINATION": 53.1599, "RA_OF_ASC_NODE": 321.685, "ARG_OF_PERICENTER": 88.0739, "MEAN_ANOMALY": 131.1163, "EPHEMERIS_TYPE": 0, "CLASSIFICATION_TYPE": "U", "NORAD_CAT_ID": 66364, "ELEMENT_SET_NO": 999, "REV_AT_EPOCH": 541, "BSTAR": -0.023997416, "MEAN_MOTION_DOT": -0.02011056, "MEAN_MOTION_DDOT": 0}, "tle": {"line1": "1 66364U 25254S   25337.33335648 -.02011056  00000+0 -23997-1 0  9995", "line2": "2 66364  53.1599 321.6850 0001365  88.0739 131.1163 15.63787372  5419"}}, "geometry": {"type": "Point", "coordinates": [-162.4365473952287, -48.35361669150518]}}]}